H-2A R/B                
1 28932U 06002B   26083.32257051  .00009484  00000+0  47075-3 0  9996
2 28932  98.2441 231.6103 0052300 190.7906 169.2207 15.16734395 96659
RESURS-DK 1             
1 29228U 06021A   26082.75165195  .00002715  00000+0  16023-3 0  9998
2 29228  69.9339 200.6470 0000713  89.5327 270.5921 15.12835410 89652
CZ-4B R/B               
1 29507U 06046C   26083.12098324  .00004994  00000+0  25261-3 0  9991
2 29507  97.5564 127.9906 0032285 215.1517 144.7587 15.17047729 62239
CZ-2C R/B               
1 31114U 07010B   26083.30909049  .00000132  00000+0  79936-4 0  9994
2 31114  98.3994 195.8562 0057927 251.2653 108.2233 14.20251257981796
COSMO-SKYMED 1          
1 31598U 07023A   26083.23989715  .00002705  00000+0  24254-3 0  9994
2 31598  97.8880 274.3906 0001067  87.8942 272.2401 14.96640411 17081
COSMOS 2428             
1 31792U 07029A   26083.26007918 -.00000011  00000+0  19610-4 0  9995
2 31792  70.9441 172.7633 0009617 262.1498  97.8531 14.12948015966158
SL-16 R/B               
1 31793U 07029B   26083.19862689  .00000219  00000+0  13809-3 0  9994
2 31793  70.9755 141.8874 0002519 276.9911 143.7799 14.14841932967428
KORONAS-FOTON           
1 33504U 09003A   26083.28622845  .00013535  00000+0  29841-3 0  9996
2 33504  82.4279 260.6954 0011810 102.3489 257.9081 15.43697304947991
CZ-2C R/B               
1 37731U 11030B   26083.12595051  .00001503  00000+0  19549-3 0  9992
2 37731  97.8570  40.1028 0051297 304.4753  65.4429 14.81271857792231
H-2A R/B                
1 38341U 12025E   26083.18338353  .00003439  00000+0  31308-3 0  9998
2 38341  98.4756  51.3931 0042801 265.1602  94.4728 14.95265395750385
SHIJIAN-16 (SJ-16)      
1 39358U 13057A   26083.31024148  .00001737  00000+0  17201-3 0  9997
2 39358  74.9725 157.4116 0015187  74.5742 285.7122 14.92406797673686
SL-4 R/B                
1 39679U 14021B   26083.23513131  .00015983  00000+0  34772-3 0  9991
2 39679  51.6056 266.2918 0096159 155.9801 204.5712 15.39661008658517
